[{"OBJECT_NAME":"OBJECT J","OBJECT_ID":"2025-155J","EPOCH":"2026-03-09T22:09:22.347648","MEAN_MOTION":15.2758258,"ECCENTRICITY":0.00088188,"INCLINATION":97.4475,"RA_OF_ASC_NODE":37.3123,"ARG_OF_PERICENTER":150.071,"MEAN_ANOMALY":210.1035,"EPHEMERIS_TYPE":0,"CLASSIFICATION_TYPE":"U","NORAD_CAT_ID":64884,"ELEMENT_SET_NO":999,"REV_AT_EPOCH":6559,"BSTAR":0.00051444498,"MEAN_MOTION_DOT":0.00013827,"MEAN_MOTION_DDOT":0},{"OBJECT_NAME":"STARLINK-35962","OBJECT_ID":"2025-265C","EPOCH":"2026-03-09T13:59:03.583968","MEAN_MOTION":15.27598219,"ECCENTRICITY":7.99e-5,"INCLINATION":42.996,"RA_OF_ASC_NODE":278.8397,"ARG_OF_PERICENTER":352.4259,"MEAN_ANOMALY":7.6581,"EPHEMERIS_TYPE":0,"CLASSIFICATION_TYPE":"U","NORAD_CAT_ID":66518,"ELEMENT_SET_NO":999,"REV_AT_EPOCH":1709,"BSTAR":0.00097121,"MEAN_MOTION_DOT":0.00026575,"MEAN_MOTION_DDOT":0}]
